[{"OBJECT_NAME":"STARLINK-5111","OBJECT_ID":"2023-046BG","EPOCH":"2025-12-08T20:48:49.480704","MEAN_MOTION":15.02545339,"ECCENTRICITY":0.00013721,"INCLINATION":43.0043,"RA_OF_ASC_NODE":279.1503,"ARG_OF_PERICENTER":274.9259,"MEAN_ANOMALY":85.1427,"EPHEMERIS_TYPE":0,"CLASSIFICATION_TYPE":"U","NORAD_CAT_ID":56146,"ELEMENT_SET_NO":999,"REV_AT_EPOCH":14855,"BSTAR":-0.00026251784,"MEAN_MOTION_DOT":-3.749e-5,"MEAN_MOTION_DDOT":0},{"OBJECT_NAME":"STARLINK-5140","OBJECT_ID":"2023-046BH","EPOCH":"2025-12-09T02:10:48.657216","MEAN_MOTION":15.02542162,"ECCENTRICITY":0.0001076,"INCLINATION":43.0032,"RA_OF_ASC_NODE":240.0216,"ARG_OF_PERICENTER":275.3599,"MEAN_ANOMALY":84.712,"EPHEMERIS_TYPE":0,"CLASSIFICATION_TYPE":"U","NORAD_CAT_ID":56147,"ELEMENT_SET_NO":999,"REV_AT_EPOCH":14902,"BSTAR":7.7434e-5,"MEAN_MOTION_DOT":8.43e-6,"MEAN_MOTION_DDOT":0},{"OBJECT_NAME":"STARLINK-5089","OBJECT_ID":"2023-046BJ","EPOCH":"2025-12-09T02:15:36.775296","MEAN_MOTION":15.02535533,"ECCENTRICITY":0.0001138,"INCLINATION":43.0028,"RA_OF_ASC_NODE":240.049,"ARG_OF_PERICENTER":266.7319,"MEAN_ANOMALY":93.3393,"EPHEMERIS_TYPE":0,"CLASSIFICATION_TYPE":"U","NORAD_CAT_ID":56148,"ELEMENT_SET_NO":999,"REV_AT_EPOCH":14902,"BSTAR":5.4143e-5,"MEAN_MOTION_DOT":5.28e-6,"MEAN_MOTION_DDOT":0},{"OBJECT_NAME":"STARLINK-30107","OBJECT_ID":"2023-056B","EPOCH":"2025-12-09T06:00:02.000160","MEAN_MOTION":15.1460083,"ECCENTRICITY":0.0001849,"INCLINATION":43.0001,"RA_OF_ASC_NODE":341.5814,"ARG_OF_PERICENTER":270.1246,"MEAN_ANOMALY":343.8588,"EPHEMERIS_TYPE":0,"CLASSIFICATION_TYPE":"U","NORAD_CAT_ID":56287,"ELEMENT_SET_NO":999,"REV_AT_EPOCH":582,"BSTAR":0.10962,"MEAN_MOTION_DOT":0.02283557,"MEAN_MOTION_DDOT":0},{"OBJECT_NAME":"STARLINK-30106","OBJECT_ID":"2023-056C","EPOCH":"2025-12-09T01:24:26.099424","MEAN_MOTION":15.02536972,"ECCENTRICITY":0.00013,"INCLINATION":43.0038,"RA_OF_ASC_NODE":342.4908,"ARG_OF_PERICENTER":273.0467,"MEAN_ANOMALY":87.0226,"EPHEMERIS_TYPE":0,"CLASSIFICATION_TYPE":"U","NORAD_CAT_ID":56288,"ELEMENT_SET_NO":999,"REV_AT_EPOCH":14639,"BSTAR":0.00010507,"MEAN_MOTION_DOT":1.216e-5,"MEAN_MOTION_DDOT":0},{"OBJECT_NAME":"STARLINK-30095","OBJECT_ID":"2023-056D","EPOCH":"2025-12-09T00:32:34.187424","MEAN_MOTION":15.02549074,"ECCENTRICITY":9.66e-5,"INCLINATION":43.0047,"RA_OF_ASC_NODE":316.9261,"ARG_OF_PERICENTER":281.7786,"MEAN_ANOMALY":78.2948,"EPHEMERIS_TYPE":0,"CLASSIFICATION_TYPE":"U","NORAD_CAT_ID":56289,"ELEMENT_SET_NO":999,"REV_AT_EPOCH":14668,"BSTAR":-0.00019202,"MEAN_MOTION_DOT":-2.797e-5,"MEAN_MOTION_DDOT":0},{"OBJECT_NAME":"STARLINK-30103","OBJECT_ID":"2023-056E","EPOCH":"2025-12-09T01:19:39.926208","MEAN_MOTION":15.02523796,"ECCENTRICITY":0.0001202,"INCLINATION":43.0057,"RA_OF_ASC_NODE":342.4679,"ARG_OF_PERICENTER":270.0093,"MEAN_ANOMALY":90.0612,"EPHEMERIS_TYPE":0,"CLASSIFICATION_TYPE":"U","NORAD_CAT_ID":56290,"ELEMENT_SET_NO":999,"REV_AT_EPOCH":14639,"BSTAR":-6.6158e-5,"MEAN_MOTION_DOT":-1.097e-5,"MEAN_MOTION_DDOT":0},{"OBJECT_NAME":"STARLINK-30113","OBJECT_ID":"2023-056F","EPOCH":"2025-12-09T01:29:13.717248","MEAN_MOTION":15.0253574,"ECCENTRICITY":0.0001154,"INCLINATION":43.0052,"RA_OF_ASC_NODE":342.5093,"ARG_OF_PERICENTER":269.4584,"MEAN_ANOMALY":90.6126,"EPHEMERIS_TYPE":0,"CLASSIFICATION_TYPE":"U","NORAD_CAT_ID":56291,"ELEMENT_SET_NO":999,"REV_AT_EPOCH":14639,"BSTAR":5.343e-5,"MEAN_MOTION_DOT":5.18e-6,"MEAN_MOTION_DDOT":0},{"OBJECT_NAME":"STARLINK-30098","OBJECT_ID":"2023-056G","EPOCH":"2025-12-09T01:14:50.716896","MEAN_MOTION":15.02539592,"ECCENTRICITY":0.0001351,"INCLINATION":43.0047,"RA_OF_ASC_NODE":342.4338,"ARG_OF_PERICENTER":279.1894,"MEAN_ANOMALY":80.8795,"EPHEMERIS_TYPE":0,"CLASSIFICATION_TYPE":"U","NORAD_CAT_ID":56292,"ELEMENT_SET_NO":999,"REV_AT_EPOCH":14639,"BSTAR":-0.00014309,"MEAN_MOTION_DOT":-2.136e-5,"MEAN_MOTION_DDOT":0},{"OBJECT_NAME":"STARLINK-30090","OBJECT_ID":"2023-056H","EPOCH":"2025-12-09T01:05:25.239264","MEAN_MOTION":15.02536174,"ECCENTRICITY":0.0001245,"INCLINATION":43.0061,"RA_OF_ASC_NODE":343.2293,"ARG_OF_PERICENTER":269.408,"MEAN_ANOMALY":90.6619,"EPHEMERIS_TYPE":0,"CLASSIFICATION_TYPE":"U","NORAD_CAT_ID":56293,"ELEMENT_SET_NO":999,"REV_AT_EPOCH":14638,"BSTAR":6.7757e-5,"MEAN_MOTION_DOT":7.12e-6,"MEAN_MOTION_DDOT":0},{"OBJECT_NAME":"STARLINK-30049","OBJECT_ID":"2023-056J","EPOCH":"2025-12-09T01:00:37.039104","MEAN_MOTION":15.02534998,"ECCENTRICITY":0.0001118,"INCLINATION":43.0047,"RA_OF_ASC_NODE":343.1462,"ARG_OF_PERICENTER":271.2401,"MEAN_ANOMALY":88.8313,"EPHEMERIS_TYPE":0,"CLASSIFICATION_TYPE":"U","NORAD_CAT_ID":56294,"ELEMENT_SET_NO":999,"REV_AT_EPOCH":14638,"BSTAR":6.5948e-5,"MEAN_MOTION_DOT":6.87e-6,"MEAN_MOTION_DDOT":0},{"OBJECT_NAME":"STARLINK-30083","OBJECT_ID":"2023-056K","EPOCH":"2025-12-08T23:16:01.591104","MEAN_MOTION":15.02532464,"ECCENTRICITY":0.000112,"INCLINATION":43.0085,"RA_OF_ASC_NODE":317.3704,"ARG_OF_PERICENTER":273.1883,"MEAN_ANOMALY":86.8831,"EPHEMERIS_TYPE":0,"CLASSIFICATION_TYPE":"U","NORAD_CAT_ID":56295,"ELEMENT_SET_NO":999,"REV_AT_EPOCH":14667,"BSTAR":5.4413e-5,"MEAN_MOTION_DOT":5.31e-6,"MEAN_MOTION_DDOT":0},{"OBJECT_NAME":"STARLINK-30089","OBJECT_ID":"2023-056L","EPOCH":"2025-12-08T23:16:22.963008","MEAN_MOTION":15.02541105,"ECCENTRICITY":0.0001195,"INCLINATION":43.0052,"RA_OF_ASC_NODE":304.3347,"ARG_OF_PERICENTER":259.4638,"MEAN_ANOMALY":100.6069,"EPHEMERIS_TYPE":0,"CLASSIFICATION_TYPE":"U","NORAD_CAT_ID":56296,"ELEMENT_SET_NO":999,"REV_AT_EPOCH":14682,"BSTAR":-4.9012e-5,"MEAN_MOTION_DOT":-8.66e-6,"MEAN_MOTION_DDOT":0},{"OBJECT_NAME":"STARLINK-30086","OBJECT_ID":"2023-056M","EPOCH":"2025-12-09T00:31:50.691936","MEAN_MOTION":15.02537672,"ECCENTRICITY":8.52e-5,"INCLINATION":43.003,"RA_OF_ASC_NODE":342.9931,"ARG_OF_PERICENTER":273.3677,"MEAN_ANOMALY":86.7068,"EPHEMERIS_TYPE":0,"CLASSIFICATION_TYPE":"U","NORAD_CAT_ID":56297,"ELEMENT_SET_NO":999,"REV_AT_EPOCH":14638,"BSTAR":3.2229e-5,"MEAN_MOTION_DOT":2.32e-6,"MEAN_MOTION_DDOT":0},{"OBJECT_NAME":"STARLINK-30109","OBJECT_ID":"2023-056N","EPOCH":"2025-12-09T00:41:24.908064","MEAN_MOTION":15.02589831,"ECCENTRICITY":0.0001343,"INCLINATION":43.0057,"RA_OF_ASC_NODE":343.0483,"ARG_OF_PERICENTER":281.5421,"MEAN_ANOMALY":78.527,"EPHEMERIS_TYPE":0,"CLASSIFICATION_TYPE":"U","NORAD_CAT_ID":56298,"ELEMENT_SET_NO":999,"REV_AT_EPOCH":14644,"BSTAR":-0.00087253,"MEAN_MOTION_DOT":-0.00011987,"MEAN_MOTION_DDOT":0},{"OBJECT_NAME":"STARLINK-30108","OBJECT_ID":"2023-056P","EPOCH":"2025-12-08T23:54:02.261664","MEAN_MOTION":15.02527329,"ECCENTRICITY":0.0001671,"INCLINATION":43.0056,"RA_OF_ASC_NODE":330.6629,"ARG_OF_PERICENTER":271.4948,"MEAN_ANOMALY":88.5703,"EPHEMERIS_TYPE":0,"CLASSIFICATION_TYPE":"U","NORAD_CAT_ID":56299,"ELEMENT_SET_NO":999,"REV_AT_EPOCH":14658,"BSTAR":8.4246e-5,"MEAN_MOTION_DOT":9.34e-6,"MEAN_MOTION_DDOT":0},{"OBJECT_NAME":"STARLINK-30104","OBJECT_ID":"2023-056Q","EPOCH":"2025-12-09T01:10:03.685728","MEAN_MOTION":15.0252893,"ECCENTRICITY":9.63e-5,"INCLINATION":43.0023,"RA_OF_ASC_NODE":342.4187,"ARG_OF_PERICENTER":277.8671,"MEAN_ANOMALY":82.2062,"EPHEMERIS_TYPE":0,"CLASSIFICATION_TYPE":"U","NORAD_CAT_ID":56300,"ELEMENT_SET_NO":999,"REV_AT_EPOCH":14645,"BSTAR":-1.6618e-5,"MEAN_MOTION_DOT":-4.28e-6,"MEAN_MOTION_DDOT":0}]
