STARLINK-5111           
1 56146U 23046BG  25342.86723936 -.00003749  00000+0 -26252-3 0  9991
2 56146  43.0043 279.1503 0001372 274.9259  85.1427 15.02545339148553
STARLINK-5140           
1 56147U 23046BH  25343.09084094  .00000843  00000+0  77434-4 0  9992
2 56147  43.0032 240.0216 0001076 275.3599  84.7120 15.02542162149022
STARLINK-5089           
1 56148U 23046BJ  25343.09417564  .00000528  00000+0  54143-4 0  9997
2 56148  43.0028 240.0490 0001138 266.7319  93.3393 15.02535533149027
STARLINK-30107          
1 56287U 23056B   25343.25002315  .02283557  00000+0  10962+0 0  9997
2 56287  43.0001 341.5814 0001849 270.1246 343.8588 15.14600830  5820
STARLINK-30106          
1 56288U 23056C   25343.05863541  .00001216  00000+0  10507-3 0  9999
2 56288  43.0038 342.4908 0001300 273.0467  87.0226 15.02536972146390
STARLINK-30095          
1 56289U 23056D   25343.02261791 -.00002797  00000+0 -19202-3 0  9994
2 56289  43.0047 316.9261 0000966 281.7786  78.2948 15.02549074146688
STARLINK-30103          
1 56290U 23056E   25343.05532322 -.00001097  00000+0 -66158-4 0  9995
2 56290  43.0057 342.4679 0001202 270.0093  90.0612 15.02523796146395
STARLINK-30113          
1 56291U 23056F   25343.06196432  .00000518  00000+0  53430-4 0  9999
2 56291  43.0052 342.5093 0001154 269.4584  90.6126 15.02535740146393
STARLINK-30098          
1 56292U 23056G   25343.05197589 -.00002136  00000+0 -14309-3 0  9994
2 56292  43.0047 342.4338 0001351 279.1894  80.8795 15.02539592146392
STARLINK-30090          
1 56293U 23056H   25343.04543101  .00000712  00000+0  67757-4 0  9991
2 56293  43.0061 343.2293 0001245 269.4080  90.6619 15.02536174146385
STARLINK-30049          
1 56294U 23056J   25343.04209536  .00000687  00000+0  65948-4 0  9994
2 56294  43.0047 343.1462 0001118 271.2401  88.8313 15.02534998146386
STARLINK-30083          
1 56295U 23056K   25342.96946286  .00000531  00000+0  54413-4 0  9998
2 56295  43.0085 317.3704 0001120 273.1883  86.8831 15.02532464146670
STARLINK-30089          
1 56296U 23056L   25342.96971022 -.00000866  00000+0 -49012-4 0  9997
2 56296  43.0052 304.3347 0001195 259.4638 100.6069 15.02541105146828
STARLINK-30086          
1 56297U 23056M   25343.02211449  .00000232  00000+0  32229-4 0  9993
2 56297  43.0030 342.9931 0000852 273.3677  86.7068 15.02537672146387
STARLINK-30109          
1 56298U 23056N   25343.02876051 -.00011987  00000+0 -87253-3 0  9997
2 56298  43.0057 343.0483 0001343 281.5421  78.5270 15.02589831146440
STARLINK-30108          
1 56299U 23056P   25342.99585951  .00000934  00000+0  84246-4 0  9997
2 56299  43.0056 330.6629 0001671 271.4948  88.5703 15.02527329146581
STARLINK-30104          
1 56300U 23056Q   25343.04865377 -.00000428  00000+0 -16618-4 0  9998
2 56300  43.0023 342.4187 0000963 277.8671  82.2062 15.02528930146458
